[{"OBJECT_NAME":"QIANFAN-103","OBJECT_ID":"2025-233N","EPOCH":"2026-03-04T02:06:03.673728","MEAN_MOTION":13.51006121,"ECCENTRICITY":0.0001883,"INCLINATION":88.9934,"RA_OF_ASC_NODE":53.8167,"ARG_OF_PERICENTER":91.4875,"MEAN_ANOMALY":268.6492,"EPHEMERIS_TYPE":0,"CLASSIFICATION_TYPE":"U","NORAD_CAT_ID":66045,"ELEMENT_SET_NO":999,"REV_AT_EPOCH":1899,"BSTAR":4.5809e-5,"MEAN_MOTION_DOT":4.2e-7,"MEAN_MOTION_DDOT":0},{"OBJECT_NAME":"QIANFAN-104","OBJECT_ID":"2025-233P","EPOCH":"2026-03-04T02:11:40.987968","MEAN_MOTION":13.51010197,"ECCENTRICITY":0.0002077,"INCLINATION":88.9938,"RA_OF_ASC_NODE":53.7137,"ARG_OF_PERICENTER":86.0799,"MEAN_ANOMALY":274.0589,"EPHEMERIS_TYPE":0,"CLASSIFICATION_TYPE":"U","NORAD_CAT_ID":66046,"ELEMENT_SET_NO":999,"REV_AT_EPOCH":1904,"BSTAR":5.1293e-5,"MEAN_MOTION_DOT":4.5e-7,"MEAN_MOTION_DDOT":0},{"OBJECT_NAME":"QIANFAN-105","OBJECT_ID":"2025-233Q","EPOCH":"2026-03-04T02:23:23.895168","MEAN_MOTION":13.50981425,"ECCENTRICITY":0.0002011,"INCLINATION":88.9951,"RA_OF_ASC_NODE":53.542,"ARG_OF_PERICENTER":92.6102,"MEAN_ANOMALY":267.5279,"EPHEMERIS_TYPE":0,"CLASSIFICATION_TYPE":"U","NORAD_CAT_ID":66047,"ELEMENT_SET_NO":999,"REV_AT_EPOCH":1915,"BSTAR":2.967e-5,"MEAN_MOTION_DOT":3.1e-7,"MEAN_MOTION_DDOT":0},{"OBJECT_NAME":"QIANFAN-106","OBJECT_ID":"2025-233R","EPOCH":"2026-03-04T02:17:50.494848","MEAN_MOTION":13.5100513,"ECCENTRICITY":0.0002382,"INCLINATION":88.992,"RA_OF_ASC_NODE":53.7883,"ARG_OF_PERICENTER":86.6883,"MEAN_ANOMALY":273.454,"EPHEMERIS_TYPE":0,"CLASSIFICATION_TYPE":"U","NORAD_CAT_ID":66048,"ELEMENT_SET_NO":999,"REV_AT_EPOCH":1900,"BSTAR":3.3775e-5,"MEAN_MOTION_DOT":3.4e-7,"MEAN_MOTION_DDOT":0},{"OBJECT_NAME":"QIANFAN-107","OBJECT_ID":"2025-233S","EPOCH":"2026-03-04T02:29:43.897920","MEAN_MOTION":13.51003181,"ECCENTRICITY":0.0001908,"INCLINATION":88.9936,"RA_OF_ASC_NODE":53.8032,"ARG_OF_PERICENTER":90.6628,"MEAN_ANOMALY":269.4741,"EPHEMERIS_TYPE":0,"CLASSIFICATION_TYPE":"U","NORAD_CAT_ID":66049,"ELEMENT_SET_NO":999,"REV_AT_EPOCH":1900,"BSTAR":4.9831e-5,"MEAN_MOTION_DOT":4.4e-7,"MEAN_MOTION_DDOT":0},{"OBJECT_NAME":"QIANFAN-108","OBJECT_ID":"2025-233T","EPOCH":"2026-03-04T02:35:38.670144","MEAN_MOTION":13.51004692,"ECCENTRICITY":0.0002332,"INCLINATION":88.9929,"RA_OF_ASC_NODE":53.7979,"ARG_OF_PERICENTER":86.3261,"MEAN_ANOMALY":273.8156,"EPHEMERIS_TYPE":0,"CLASSIFICATION_TYPE":"U","NORAD_CAT_ID":66050,"ELEMENT_SET_NO":999,"REV_AT_EPOCH":1900,"BSTAR":5.4733e-5,"MEAN_MOTION_DOT":4.7e-7,"MEAN_MOTION_DDOT":0}]
