QIANFAN-103             
1 66045U 25233N   26063.08754252  .00000042  00000+0  45809-4 0  9991
2 66045  88.9934  53.8167 0001883  91.4875 268.6492 13.51006121 18992
QIANFAN-104             
1 66046U 25233P   26063.09144662  .00000045  00000+0  51293-4 0  9998
2 66046  88.9938  53.7137 0002077  86.0799 274.0589 13.51010197 19047
QIANFAN-105             
1 66047U 25233Q   26063.09958212  .00000031  00000+0  29670-4 0  9992
2 66047  88.9951  53.5420 0002011  92.6102 267.5279 13.50981425 19150
QIANFAN-106             
1 66048U 25233R   26063.09572332  .00000034  00000+0  33775-4 0  9992
2 66048  88.9920  53.7883 0002382  86.6883 273.4540 13.51005130 19004
QIANFAN-107             
1 66049U 25233S   26063.10398030  .00000044  00000+0  49831-4 0  9997
2 66049  88.9936  53.8032 0001908  90.6628 269.4741 13.51003181 19006
QIANFAN-108             
1 66050U 25233T   26063.10808646  .00000047  00000+0  54733-4 0  9998
2 66050  88.9929  53.7979 0002332  86.3261 273.8156 13.51004692 19003
